COSMOS 2251 DEB         
1 35658U 93036ANZ 17343.21409563  .00001330  00000-0  33859-3 0  9994
2 35658  74.0154 172.0573 0021928 246.2435 113.6426 14.51514733451460
